{"type": "FeatureCollection", "features": [ {"type": "Feature", "properties": {"norad_id": 30829, "name": "FENGYUN 1C DEB", "group": "fengyun-1c-debris", "lat": 68.00438629462604, "lon": -164.26585472983265, "alt_km": 882.6320446425134, "timestamp": "2025-12-26T23:26:42.407125+00:00", "meta": {"OBJECT_NAME": "FENGYUN 1C DEB", "OBJECT_ID": "1999-025AVP", "EPOCH": "2025-12-21T04:50:35.348064", "MEAN_MOTION": 14.0866618, "ECCENTRICITY": 0.00351096, "INCLINATION": 98.7774, "RA_OF_ASC_NODE": 347.6253, "ARG_OF_PERICENTER": 310.4409, "MEAN_ANOMALY": 49.37, "EPHEMERIS_TYPE": 0, "CLASSIFICATION_TYPE": "U", "NORAD_CAT_ID": 30829, "ELEMENT_SET_NO": 999, "REV_AT_EPOCH": 96552, "BSTAR": 0.0003913399, "MEAN_MOTION_DOT": 6.34e-06, "MEAN_MOTION_DDOT": 0}, "tle": {"line1": "1 30829U 99025AVP 25355.20179801  .00000634  00000+0  39134-3 0  9990", "line2": "2 30829  98.7774 347.6253 0035109 310.4409  49.3700 14.08666180965525"}}, "geometry": {"type": "Point", "coordinates": [-164.26585472983265, 68.00438629462604]}}, {"type": "Feature", "properties": {"norad_id": 30830, "name": "FENGYUN 1C DEB", "group": "fengyun-1c-debris", "lat": 33.3242202184351, "lon": 174.80321257588406, "alt_km": 826.9298865661758, "timestamp": "2025-12-26T23:26:42.407134+00:00", "meta": {"OBJECT_NAME": "FENGYUN 1C DEB", "OBJECT_ID": "1999-025AVQ", "EPOCH": "2025-12-26T11:27:37.316736", "MEAN_MOTION": 14.12242082, "ECCENTRICITY": 0.00313517, "INCLINATION": 98.7303, "RA_OF_ASC_NODE": 348.5185, "ARG_OF_PERICENTER": 149.7845, "MEAN_ANOMALY": 338.984, "EPHEMERIS_TYPE": 0, "CLASSIFICATION_TYPE": "U", "NORAD_CAT_ID": 30830, "ELEMENT_SET_NO": 999, "REV_AT_EPOCH": 96793, "BSTAR": 0.0002499642, "MEAN_MOTION_DOT": 4.19e-06, "MEAN_MOTION_DDOT": 0}, "tle": {"line1": "1 30830U 99025AVQ 25360.47751524  .00000419  00000+0  24996-3 0  9996", "line2": "2 30830  98.7303 348.5185 0031351 149.7845 338.9840 14.12242082967936"}}, "geometry": {"type": "Point", "coordinates": [174.80321257588406, 33.3242202184351]}}, {"type": "Feature", "properties": {"norad_id": 30831, "name": "FENGYUN 1C DEB", "group": "fengyun-1c-debris", "lat": -53.934881856685344, "lon": -38.26385092760944, "alt_km": 813.4074560750742, "timestamp": "2025-12-26T23:26:42.407142+00:00", "meta": {"OBJECT_NAME": "FENGYUN 1C DEB", "OBJECT_ID": "1999-025AVR", "EPOCH": "2025-12-26T05:34:05.943936", "MEAN_MOTION": 14.31116177, "ECCENTRICITY": 0.00550848, "INCLINATION": 99.3287, "RA_OF_ASC_NODE": 153.9814, "ARG_OF_PERICENTER": 355.2233, "MEAN_ANOMALY": 4.8415, "EPHEMERIS_TYPE": 0, "CLASSIFICATION_TYPE": "U", "NORAD_CAT_ID": 30831, "ELEMENT_SET_NO": 999, "REV_AT_EPOCH": 65443, "BSTAR": 0.00042705724, "MEAN_MOTION_DOT": 1.095e-05, "MEAN_MOTION_DDOT": 0}, "tle": {"line1": "1 30831U 99025AVR 25360.23201324  .00001095  00000+0  42706-3 0  9999", "line2": "2 30831  99.3287 153.9814 0055084 355.2233   4.8415 14.31116177654437"}}, "geometry": {"type": "Point", "coordinates": [-38.26385092760944, -53.934881856685344]}}, {"type": "Feature", "properties": {"norad_id": 30833, "name": "FENGYUN 1C DEB", "group": "fengyun-1c-debris", "lat": 33.11288673312618, "lon": 142.32026769412792, "alt_km": 807.3903277752988, "timestamp": "2025-12-26T23:26:42.407151+00:00", "meta": {"OBJECT_NAME": "FENGYUN 1C DEB", "OBJECT_ID": "1999-025AVT", "EPOCH": "2025-12-24T03:57:58.905504", "MEAN_MOTION": 14.26787589, "ECCENTRICITY": 0.00331253, "INCLINATION": 99.8449, "RA_OF_ASC_NODE": 145.6642, "ARG_OF_PERICENTER": 149.0578, "MEAN_ANOMALY": 211.2559, "EPHEMERIS_TYPE": 0, "CLASSIFICATION_TYPE": "U", "NORAD_CAT_ID": 30833, "ELEMENT_SET_NO": 999, "REV_AT_EPOCH": 64574, "BSTAR": 0.00053703007, "MEAN_MOTION_DOT": 1.255e-05, "MEAN_MOTION_DDOT": 0}, "tle": {"line1": "1 30833U 99025AVT 25358.16526511  .00001255  00000+0  53703-3 0  9995", "line2": "2 30833  99.8449 145.6642 0033125 149.0578 211.2559 14.26787589645746"}}, "geometry": {"type": "Point", "coordinates": [142.32026769412792, 33.11288673312618]}}, {"type": "Feature", "properties": {"norad_id": 30836, "name": "FENGYUN 1C DEB", "group": "fengyun-1c-debris", "lat": 36.128485694856394, "lon": -140.26643008076843, "alt_km": 840.8078923443782, "timestamp": "2025-12-26T23:26:42.407160+00:00", "meta": {"OBJECT_NAME": "FENGYUN 1C DEB", "OBJECT_ID": "1999-025AVW", "EPOCH": "2025-12-21T01:36:21.545856", "MEAN_MOTION": 14.11944491, "ECCENTRICITY": 0.00260217, "INCLINATION": 98.7439, "RA_OF_ASC_NODE": 27.5216, "ARG_OF_PERICENTER": 220.4586, "MEAN_ANOMALY": 139.4651, "EPHEMERIS_TYPE": 0, "CLASSIFICATION_TYPE": "U", "NORAD_CAT_ID": 30836, "ELEMENT_SET_NO": 999, "REV_AT_EPOCH": 62121, "BSTAR": 0.00026112112, "MEAN_MOTION_DOT": 4.36e-06, "MEAN_MOTION_DDOT": 0}, "tle": {"line1": "1 30836U 99025AVW 25355.06691604  .00000436  00000+0  26112-3 0  9994", "line2": "2 30836  98.7439  27.5216 0026021 220.4586 139.4651 14.11944491621212"}}, "geometry": {"type": "Point", "coordinates": [-140.26643008076843, 36.128485694856394]}}, {"type": "Feature", "properties": {"norad_id": 30837, "name": "FENGYUN 1C DEB", "group": "fengyun-1c-debris", "lat": -40.68793991824998, "lon": -5.639842800466863, "alt_km": 867.3332681783459, "timestamp": "2025-12-26T23:26:42.407169+00:00", "meta": {"OBJECT_NAME": "FENGYUN 1C DEB", "OBJECT_ID": "1999-025AVX", "EPOCH": "2025-12-26T05:01:57.953856", "MEAN_MOTION": 14.14537857, "ECCENTRICITY": 0.00333413, "INCLINATION": 98.6799, "RA_OF_ASC_NODE": 346.0676, "ARG_OF_PERICENTER": 95.9197, "MEAN_ANOMALY": 278.6298, "EPHEMERIS_TYPE": 0, "CLASSIFICATION_TYPE": "U", "NORAD_CAT_ID": 30837, "ELEMENT_SET_NO": 999, "REV_AT_EPOCH": 97009, "BSTAR": 0.00030826444, "MEAN_MOTION_DOT": 5.52e-06, "MEAN_MOTION_DDOT": 0}, "tle": {"line1": "1 30837U 99025AVX 25360.20969854  .00000552  00000+0  30826-3 0  9998", "line2": "2 30837  98.6799 346.0676 0033341  95.9197 278.6298 14.14537857970099"}}, "geometry": {"type": "Point", "coordinates": [-5.639842800466863, -40.68793991824998]}}, {"type": "Feature", "properties": {"norad_id": 30838, "name": "FENGYUN 1C DEB", "group": "fengyun-1c-debris", "lat": -50.79074433507602, "lon": 84.57321293793251, "alt_km": 750.7735273673406, "timestamp": "2025-12-26T23:26:42.407178+00:00", "meta": {"OBJECT_NAME": "FENGYUN 1C DEB", "OBJECT_ID": "1999-025AVY", "EPOCH": "2025-12-26T10:46:22.778400", "MEAN_MOTION": 14.47969442, "ECCENTRICITY": 0.00353806, "INCLINATION": 99.0425, "RA_OF_ASC_NODE": 275.2649, "ARG_OF_PERICENTER": 115.4609, "MEAN_ANOMALY": 245.0249, "EPHEMERIS_TYPE": 0, "CLASSIFICATION_TYPE": "U", "NORAD_CAT_ID": 30838, "ELEMENT_SET_NO": 999, "REV_AT_EPOCH": 97512, "BSTAR": 0.0024161811, "MEAN_MOTION_DOT": 8.998e-05, "MEAN_MOTION_DDOT": 0}, "tle": {"line1": "1 30838U 99025AVY 25360.44887475  .00008998  00000+0  24162-2 0  9990", "line2": "2 30838  99.0425 275.2649 0035380 115.4609 245.0249 14.47969442975123"}}, "geometry": {"type": "Point", "coordinates": [84.57321293793251, -50.79074433507602]}}, {"type": "Feature", "properties": {"norad_id": 30840, "name": "FENGYUN 1C DEB", "group": "fengyun-1c-debris", "lat": -43.19364439806325, "lon": 19.510834504416042, "alt_km": 544.8720535089142, "timestamp": "2025-12-26T23:26:42.407187+00:00", "meta": {"OBJECT_NAME": "FENGYUN 1C DEB", "OBJECT_ID": "1999-025AWA", "EPOCH": "2025-12-26T12:07:59.151072", "MEAN_MOTION": 14.61247002, "ECCENTRICITY": 0.02163395, "INCLINATION": 98.0229, "RA_OF_ASC_NODE": 11.4441, "ARG_OF_PERICENTER": 327.3141, "MEAN_ANOMALY": 31.4823, "EPHEMERIS_TYPE": 0, "CLASSIFICATION_TYPE": "U", "NORAD_CAT_ID": 30840, "ELEMENT_SET_NO": 999, "REV_AT_EPOCH": 73332, "BSTAR": 0.00080719612, "MEAN_MOTION_DOT": 5.501e-05, "MEAN_MOTION_DDOT": 0}, "tle": {"line1": "1 30840U 99025AWA 25360.50554573  .00005501  00000+0  80720-3 0  9990", "line2": "2 30840  98.0229  11.4441 0216339 327.3141  31.4823 14.61247002733323"}}, "geometry": {"type": "Point", "coordinates": [19.510834504416042, -43.19364439806325]}}, {"type": "Feature", "properties": {"norad_id": 30843, "name": "FENGYUN 1C DEB", "group": "fengyun-1c-debris", "lat": 58.49593152104079, "lon": 58.65206161681206, "alt_km": 610.7133995814702, "timestamp": "2025-12-26T23:26:42.407196+00:00", "meta": {"OBJECT_NAME": "FENGYUN 1C DEB", "OBJECT_ID": "1999-025AWD", "EPOCH": "2025-12-24T03:23:32.017920", "MEAN_MOTION": 14.52491521, "ECCENTRICITY": 0.01488463, "INCLINATION": 98.841, "RA_OF_ASC_NODE": 70.3765, "ARG_OF_PERICENTER": 85.3289, "MEAN_ANOMALY": 276.4887, "EPHEMERIS_TYPE": 0, "CLASSIFICATION_TYPE": "U", "NORAD_CAT_ID": 30843, "ELEMENT_SET_NO": 999, "REV_AT_EPOCH": 99490, "BSTAR": 0.00012943843, "MEAN_MOTION_DOT": 5.54e-06, "MEAN_MOTION_DDOT": 0}, "tle": {"line1": "1 30843U 99025AWD 25358.14134280  .00000554  00000+0  12944-3 0  9995", "line2": "2 30843  98.8410  70.3765 0148846  85.3289 276.4887 14.52491521994901"}}, "geometry": {"type": "Point", "coordinates": [58.65206161681206, 58.49593152104079]}}, {"type": "Feature", "properties": {"norad_id": 30845, "name": "FENGYUN 1C DEB", "group": "fengyun-1c-debris", "lat": 72.73045835519449, "lon": -28.42377543527905, "alt_km": 1097.5933572846006, "timestamp": "2025-12-26T23:26:42.407205+00:00", "meta": {"OBJECT_NAME": "FENGYUN 1C DEB", "OBJECT_ID": "1999-025AWF", "EPOCH": "2025-12-26T05:42:50.444640", "MEAN_MOTION": 13.7686738, "ECCENTRICITY": 0.01922125, "INCLINATION": 98.3793, "RA_OF_ASC_NODE": 359.2252, "ARG_OF_PERICENTER": 233.7548, "MEAN_ANOMALY": 141.9902, "EPHEMERIS_TYPE": 0, "CLASSIFICATION_TYPE": "U", "NORAD_CAT_ID": 30845, "ELEMENT_SET_NO": 999, "REV_AT_EPOCH": 94429, "BSTAR": 0.0002992499, "MEAN_MOTION_DOT": 3e-06, "MEAN_MOTION_DDOT": 0}, "tle": {"line1": "1 30845U 99025AWF 25360.23808385  .00000300  00000+0  29925-3 0  9990", "line2": "2 30845  98.3793 359.2252 0192212 233.7548 141.9902 13.76867380944291"}}, "geometry": {"type": "Point", "coordinates": [-28.42377543527905, 72.73045835519449]}}]}